0 STARLINK-2037
1 47653U 21012AK  23325.12493042  .00002760  00000-0  20409-3 0  9994
2 47653  53.0537 220.5716 0001635 101.8997 258.2175 15.06404344153711
0 STARLINK-2037
1 47653U 21012AK  23325.12493042  .00002760  00000-0  20409-3 0  9994
2 47653  53.0537 220.5716 0001635 101.8997 258.2175 15.06404344153205
0 STARLINK-2038
1 47654U 21012AL  23324.93509905 -.00002409  00000-0 -14285-3 0  9996
2 47654  53.0553 241.4276 0002119 110.6246 249.4970 15.06398040153413
0 STARLINK-2038
1 47654U 21012AL  23325.13414235 -.00003560  00000-0 -22028-3 0  9993
2 47654  53.0552 240.5370 0001714  94.7256 265.3929 15.06392083152927
0 STARLINK-2038
1 47654U 21012AL  23325.46587604  .00002033  00000-0  15531-3 0  9993
2 47654  53.0544 239.0435 0001633  90.0483 270.0693 15.06400908153494
0 STARLINK-2038
1 47654U 21012AL  23325.46587604  .00002033  00000-0  15531-3 0  9993
2 47654  53.0544 239.0435 0001633  90.0483 270.0693 15.06400908152976
0 STARLINK-2039
1 47655U 21012AM  23324.92772605 -.00000403  00000-0 -81215-5 0  9996
2 47655  53.0535 241.4599 0001641  97.1231 262.9945 15.06403063153418
0 STARLINK-2039
1 47655U 21012AM  23325.12676929  .00000778  00000-0  71147-4 0  9996
2 47655  53.0529 240.5660 0001604  83.0637 277.0535 15.06393927152927
0 STARLINK-2039
1 47655U 21012AM  23325.45850371  .00003268  00000-0  23821-3 0  9999
2 47655  53.0529 239.0771 0001572  83.7743 276.3425 15.06400140153491
0 STARLINK-2040
1 47656U 21012AN  23324.94431943  .00001072  00000-0  90880-4 0  9994
2 47656  53.0539 221.3788 0001602  93.2877 266.8295 15.06402193153694
0 STARLINK-2040
1 47656U 21012AN  23325.14336029  .00000978  00000-0  84549-4 0  9995
2 47656  53.0542 220.4914 0001523  91.8938 268.2225 15.06402624153208
0 STARLINK-2040
1 47656U 21012AN  23325.14336029  .00000978  00000-0  84549-4 0  9995
2 47656  53.0542 220.4914 0001523  91.8938 268.2225 15.06402624153725
0 STARLINK-2041
1 47657U 21012AP  23324.75080391 -.00004222  00000-0 -26475-3 0  9991
2 47657  53.0535 242.2523 0001229  84.6572 275.4557 15.06391060153384
0 STARLINK-2041
1 47657U 21012AP  23325.14888591  .00002846  00000-0  20991-3 0  9998
2 47657  53.0534 240.4655 0001405  85.2112 274.9037 15.06393884153442
0 STARLINK-2041
1 47657U 21012AP  23325.14888591  .00002846  00000-0  20991-3 0  9998
2 47657  53.0534 240.4655 0001405  85.2112 274.9037 15.06393884152935
0 STARLINK-2042
1 47658U 21012AQ  23324.94247994  .00000716  00000-0  66982-4 0  9997
2 47658  53.0557 241.3971 0001687  99.6056 260.5123 15.06403865153434
0 STARLINK-2042
1 47658U 21012AQ  23325.47324977  .00011135  00000-0  76495-3 0  9999
2 47658  53.0546 239.0100 0001485 100.6258 259.4898 15.06414249153516
0 STARLINK-2043
1 47659U 21012AR  23324.76923062  .00000774  00000-0  70856-4 0  9994
2 47659  53.0547 122.1673 0001372  90.4989 269.6157 15.06402614155041
0 STARLINK-2043
1 47659U 21012AR  23325.43270695  .00000487  00000-0  51572-4 0  9991
2 47659  53.0546 119.1893 0001217  88.2058 271.9071 15.06391187155144
0 STARLINK-2043
1 47659U 21012AR  23325.43270695  .00000487  00000-0  51572-4 0  9991
2 47659  53.0546 119.1893 0001217  88.2058 271.9071 15.06391187154648
0 STARLINK-2044
1 47660U 21012AS  23324.85500198  .00001201  00000-0  99488-4 0  9995
2 47660  53.0548 112.4099 0001342  81.8018 278.3123 15.06402675155195
0 STARLINK-2044
1 47660U 21012AS  23325.12039659  .00000327  00000-0  40827-4 0  9996
2 47660  53.0548 111.2175 0001520  79.4221 280.6939 15.06394703154736
0 STARLINK-2044
1 47660U 21012AS  23325.45212789 -.00003391  00000-0 -20876-3 0  9996
2 47660  53.0557 109.7296 0001475  93.2565 266.8593 15.06412594154782
0 STARLINK-2044
1 47660U 21012AS  23325.45212789 -.00003391  00000-0 -20876-3 0  9996
2 47660  53.0557 109.7296 0001475  93.2565 266.8593 15.06412594155288
0 STARLINK-2044
1 47660U 21012AS  23325.71751708  .00000616  00000-0  60276-4 0  9998
2 47660  53.0554 108.5382 0001364  84.9825 275.1320 15.06396838154823
0 STARLINK-2051
1 47661U 21012AT  23324.90746267  .00002482  00000-0  18544-3 0  9996
2 47661  53.0528 221.5488 0002064  84.3344 275.7880 15.06401537153678
0 STARLINK-2051
1 47661U 21012AT  23325.10650458  .00000030  00000-0  20892-4 0  9992
2 47661  53.0540 220.6531 0001756  88.4604 271.6586 15.06394528153200
0 STARLINK-2051
1 47661U 21012AT  23325.43823553  .00002408  00000-0  18051-3 0  9990
2 47661  53.0530 219.1657 0001486  86.3856 273.7303 15.06404287153751
0 STARLINK-2051
1 47661U 21012AT  23325.43823553  .00002408  00000-0  18051-3 0  9990
2 47661  53.0530 219.1657 0001486  86.3856 273.7303 15.06404287153256
0 STARLINK-2052
1 47662U 21012AU  23324.88808565 -.00000942  00000-0 -44364-4 0  9995
2 47662  53.0535 221.6388 0001595  92.3690 267.7482 15.06401315153693
0 STARLINK-2052
1 47662U 21012AU  23325.08712579 -.00000072  00000-0  14045-4 0  9993
2 47662  53.0536 220.7446 0001594  90.6442 269.4729 15.06402673153202
0 STARLINK-2052
1 47662U 21012AU  23325.41885597  .00001168  00000-0  97307-4 0  9999
2 47662  53.0535 219.2549 0001600  93.8640 266.2532 15.06407928153778
0 STARLINK-2052
1 47662U 21012AU  23325.68423723  .00001681  00000-0  13169-3 0  9990
2 47662  53.0530 218.0624 0001543  96.3570 263.7595 15.06416410153294
0 STARLINK-2053
1 47663U 21012AV  23324.81903209  .00001330  00000-0  10819-3 0  9997
2 47663  53.0541 142.2645 0001493  94.8100 265.3059 15.06403035154792
0 STARLINK-2053
1 47663U 21012AV  23325.48250620  .00000719  00000-0  67193-4 0  9991
2 47663  53.0539 139.2854 0001481  92.1203 267.9956 15.06395719154893
0 STARLINK-2053
1 47663U 21012AV  23325.48250620  .00000719  00000-0  67193-4 0  9991
2 47663  53.0539 139.2854 0001481  92.1203 267.9956 15.06395719154376
0 STARLINK-2054
1 47664U 21012AW  23324.88902854 -.00001421  00000-0 -76512-4 0  9996
2 47664  53.0541 221.6331 0001536  94.0640 266.0525 15.06396145153693
0 STARLINK-2054
1 47664U 21012AW  23325.08807149  .00000138  00000-0  28182-4 0  9992
2 47664  53.0533 220.7390 0001468  86.0773 274.0384 15.06395794153209
0 STARLINK-2054
1 47664U 21012AW  23325.41980456  .00001806  00000-0  14014-3 0  9993
2 47664  53.0535 219.2501 0001494  85.8298 274.2861 15.06399796153776
0 STARLINK-2056
1 47665U 21012AX  23324.93556870  .00002063  00000-0  15737-3 0  9998
2 47665  53.0544 216.4731 0001551  98.6333 261.4832 15.06403128153767
0 STARLINK-2056
1 47665U 21012AX  23325.13460909  .00002489  00000-0  18594-3 0  9994
2 47665  53.0538 215.5789 0001500  96.5024 263.6136 15.06402980153273
0 STARLINK-2056
1 47665U 21012AX  23325.39999551  .00004259  00000-0  30463-3 0  9998
2 47665  53.0538 214.3877 0001480  97.7236 262.3921 15.06405585153837
0 STARLINK-2057
1 47666U 21012AY  23324.93193099  .00001468  00000-0  11744-3 0  9991
2 47666  53.0539 216.7972 0001418  87.0163 273.0988 15.06402976153768
0 STARLINK-2057
1 47666U 21012AY  23325.06462214  .00002036  00000-0  15548-3 0  9992
2 47666  53.0538 216.2014 0001441  87.0887 273.0267 15.06406767153265
0 STARLINK-2057
1 47666U 21012AY  23325.39635210  .00003223  00000-0  23506-3 0  9998
2 47666  53.0539 214.7119 0001435  86.7883 273.3270 15.06412173153838
0 STARLINK-2058
1 47667U 21012AZ  23324.92036443  .00001791  00000-0  13908-3 0  9993
2 47667  53.0548 241.4916 0001558 105.1437 254.9724 15.06401610153392
0 STARLINK-2058
1 47667U 21012AZ  23325.05305817  .00001897  00000-0  14624-3 0  9995
2 47667  53.0545 240.8962 0001646 100.7298 259.3876 15.06401562152917
0 STARLINK-2058
1 47667U 21012AZ  23325.18575163  .00002986  00000-0  21928-3 0  9997
2 47667  53.0548 240.3002 0001631 101.3165 258.8007 15.06402648153438
0 STARLINK-2059
1 47668U 21012BA  23324.89640536 -.00001951  00000-0 -11212-3 0  9990
2 47668  53.0538 221.5980 0001510  88.0177 272.0984 15.06390246153694
0 STARLINK-2059
1 47668U 21012BA  23325.09545113  .00000501  00000-0  52568-4 0  9996
2 47668  53.0550 220.7045 0001488  87.6378 272.4782 15.06391480153201
0 STARLINK-2059
1 47668U 21012BA  23325.42717940  .00001456  00000-0  11665-3 0  9994
2 47668  53.0550 219.2151 0001489  86.1618 273.9541 15.06399637153250
0 STARLINK-2059
1 47668U 21012BA  23325.42717940  .00001456  00000-0  11665-3 0  9994
2 47668  53.0550 219.2151 0001489  86.1618 273.9541 15.06399637153777
0 STARLINK-2062
1 47670U 21012BC  23324.91115181  .00000116  00000-0  26686-4 0  9991
2 47670  53.0542 221.5316 0001706  82.2474 277.8709 15.06391546153689
0 STARLINK-2062
1 47670U 21012BC  23325.11019240  .00000060  00000-0  22913-4 0  9990
2 47670  53.0533 220.6384 0001652  83.2137 276.9040 15.06392999153200
0 STARLINK-2062
1 47670U 21012BC  23325.44192475  .00001640  00000-0  12895-3 0  9990
2 47670  53.0536 219.1497 0001706  83.7815 276.3368 15.06399060153763
0 STARLINK-2064
1 47671U 21012BD  23324.89271018 -.00001258  00000-0 -65593-4 0  9991
2 47671  53.0529 221.6119 0001747 110.7902 249.3274 15.06399683153697
0 STARLINK-2064
1 47671U 21012BD  23325.15810338 -.00001251  00000-0 -65141-4 0  9997
2 47671  53.0531 220.4233 0001520  85.8002 274.3161 15.06394808153211
0 STARLINK-2064
1 47671U 21012BD  23325.42348984 -.00000248  00000-0  22469-5 0  9991
2 47671  53.0532 219.2325 0001499  84.4360 275.6800 15.06397777153770
0 STARLINK-2065
1 47672U 21012BE  23324.91108840  .00006852  00000-0  47839-3 0  9992
2 47672  53.0536 211.2533 0001758 108.2254 251.8927 15.06406820153814
0 STARLINK-2065
1 47672U 21012BE  23325.04378353  .00005938  00000-0  41721-3 0  9993
2 47672  53.0541 210.6582 0001651 103.0504 257.0669 15.06401491153832
0 STARLINK-2065
1 47672U 21012BE  23325.04378353  .00005938  00000-0  41721-3 0  9993
2 47672  53.0541 210.6582 0001651 103.0504 257.0669 15.06401491153337
0 STARLINK-2066
1 47673U 21012BF  23324.91483934  .00000723  00000-0  67474-4 0  9992
2 47673  53.0536 221.5158 0001646  82.6129 277.5047 15.06393568153681
0 STARLINK-2066
1 47673U 21012BF  23325.11387815  .00000293  00000-0  38580-4 0  9994
2 47673  53.0539 220.6210 0001500  87.1666 272.9495 15.06396536153716
0 STARLINK-2067
1 47674U 21012BG  23324.92864296  .00001565  00000-0  12393-3 0  9992
2 47674  53.0552 221.4439 0001759  89.9943 270.1248 15.06399412153697
